[{"OBJECT_NAME":"MATS","OBJECT_ID":"2022-147A","EPOCH":"2026-04-05T20:24:13.100832","MEAN_MOTION":15.04903334,"ECCENTRICITY":0.0014698,"INCLINATION":97.6842,"RA_OF_ASC_NODE":97.7852,"ARG_OF_PERICENTER":86.4958,"MEAN_ANOMALY":273.7949,"EPHEMERIS_TYPE":0,"CLASSIFICATION_TYPE":"U","NORAD_CAT_ID":54227,"ELEMENT_SET_NO":999,"REV_AT_EPOCH":18688,"BSTAR":0.00029412,"MEAN_MOTION_DOT":4.11e-5,"MEAN_MOTION_DDOT":0},{"OBJECT_NAME":"JILIN-1 GAOFEN 03D54","OBJECT_ID":"2022-155D","EPOCH":"2026-04-05T20:43:28.992000","MEAN_MOTION":15.74235968,"ECCENTRICITY":0.0004171,"INCLINATION":97.605,"RA_OF_ASC_NODE":241.0452,"ARG_OF_PERICENTER":237.9179,"MEAN_ANOMALY":122.168,"EPHEMERIS_TYPE":0,"CLASSIFICATION_TYPE":"U","NORAD_CAT_ID":54254,"ELEMENT_SET_NO":999,"REV_AT_EPOCH":18885,"BSTAR":0.00097737,"MEAN_MOTION_DOT":0.00142204,"MEAN_MOTION_DDOT":0},{"OBJECT_NAME":"EOS-6 (OCEANSAT-3)","OBJECT_ID":"2022-158A","EPOCH":"2026-04-05T19:59:15.362016","MEAN_MOTION":14.4698387,"ECCENTRICITY":0.0001705,"INCLINATION":98.3484,"RA_OF_ASC_NODE":195.0061,"ARG_OF_PERICENTER":134.8018,"MEAN_ANOMALY":225.3313,"EPHEMERIS_TYPE":0,"CLASSIFICATION_TYPE":"U","NORAD_CAT_ID":54361,"ELEMENT_SET_NO":999,"REV_AT_EPOCH":17737,"BSTAR":0.00015941,"MEAN_MOTION_DOT":5.36e-6,"MEAN_MOTION_DDOT":0},{"OBJECT_NAME":"DONGPO 09","OBJECT_ID":"2022-167D","EPOCH":"2026-04-05T21:07:21.147168","MEAN_MOTION":15.34777505,"ECCENTRICITY":0.0002911,"INCLINATION":97.6843,"RA_OF_ASC_NODE":263.7726,"ARG_OF_PERICENTER":45.9564,"MEAN_ANOMALY":314.1917,"EPHEMERIS_TYPE":0,"CLASSIFICATION_TYPE":"U","NORAD_CAT_ID":54685,"ELEMENT_SET_NO":999,"REV_AT_EPOCH":18435,"BSTAR":0.00051095,"MEAN_MOTION_DOT":0.00017163,"MEAN_MOTION_DDOT":0},{"OBJECT_NAME":"DONGPO 08","OBJECT_ID":"2022-167E","EPOCH":"2026-04-05T20:51:15.196032","MEAN_MOTION":15.32280562,"ECCENTRICITY":0.0009424,"INCLINATION":97.6801,"RA_OF_ASC_NODE":261.2726,"ARG_OF_PERICENTER":68.699,"MEAN_ANOMALY":291.5256,"EPHEMERIS_TYPE":0,"CLASSIFICATION_TYPE":"U","NORAD_CAT_ID":54686,"ELEMENT_SET_NO":999,"REV_AT_EPOCH":18424,"BSTAR":0.00047064,"MEAN_MOTION_DOT":0.00014618,"MEAN_MOTION_DDOT":0},{"OBJECT_NAME":"2022-167F","OBJECT_ID":"2022-167F","EPOCH":"2026-04-05T19:45:26.788608","MEAN_MOTION":15.73642284,"ECCENTRICITY":0.0002582,"INCLINATION":97.6206,"RA_OF_ASC_NODE":276.0062,"ARG_OF_PERICENTER":276.9105,"MEAN_ANOMALY":83.1864,"EPHEMERIS_TYPE":0,"CLASSIFICATION_TYPE":"U","NORAD_CAT_ID":54687,"ELEMENT_SET_NO":999,"REV_AT_EPOCH":18539,"BSTAR":0.00087486,"MEAN_MOTION_DOT":0.00123782,"MEAN_MOTION_DDOT":0},{"OBJECT_NAME":"DONGPO 10","OBJECT_ID":"2022-167H","EPOCH":"2026-04-05T20:19:36.664896","MEAN_MOTION":15.33026903,"ECCENTRICITY":0.0005185,"INCLINATION":97.6885,"RA_OF_ASC_NODE":263.0321,"ARG_OF_PERICENTER":25.8848,"MEAN_ANOMALY":334.2652,"EPHEMERIS_TYPE":0,"CLASSIFICATION_TYPE":"U","NORAD_CAT_ID":54689,"ELEMENT_SET_NO":999,"REV_AT_EPOCH":18427,"BSTAR":0.00045775,"MEAN_MOTION_DOT":0.00014538,"MEAN_MOTION_DDOT":0},{"OBJECT_NAME":"JILIN-1 GAOFEN 03D48","OBJECT_ID":"2022-167P","EPOCH":"2026-04-05T21:06:00.872928","MEAN_MOTION":15.33729525,"ECCENTRICITY":0.0006626,"INCLINATION":97.6818,"RA_OF_ASC_NODE":262.4245,"ARG_OF_PERICENTER":26.2391,"MEAN_ANOMALY":333.9185,"EPHEMERIS_TYPE":0,"CLASSIFICATION_TYPE":"U","NORAD_CAT_ID":54695,"ELEMENT_SET_NO":999,"REV_AT_EPOCH":18430,"BSTAR":0.00048134,"MEAN_MOTION_DOT":0.0001564,"MEAN_MOTION_DDOT":0},{"OBJECT_NAME":"STAR VIBE","OBJECT_ID":"2023-001A","EPOCH":"2026-04-05T20:40:45.047136","MEAN_MOTION":15.4071719,"ECCENTRICITY":0.0006213,"INCLINATION":97.323,"RA_OF_ASC_NODE":160.1168,"ARG_OF_PERICENTER":31.3032,"MEAN_ANOMALY":328.8583,"EPHEMERIS_TYPE":0,"CLASSIFICATION_TYPE":"U","NORAD_CAT_ID":55009,"ELEMENT_SET_NO":999,"REV_AT_EPOCH":18108,"BSTAR":0.00045916,"MEAN_MOTION_DOT":0.00018707,"MEAN_MOTION_DDOT":0},{"OBJECT_NAME":"BRO-8","OBJECT_ID":"2023-001C","EPOCH":"2026-04-05T20:33:57.263328","MEAN_MOTION":15.45028343,"ECCENTRICITY":0.0006153,"INCLINATION":97.3279,"RA_OF_ASC_NODE":160.206,"ARG_OF_PERICENTER":38.5524,"MEAN_ANOMALY":321.6164,"EPHEMERIS_TYPE":0,"CLASSIFICATION_TYPE":"U","NORAD_CAT_ID":55011,"ELEMENT_SET_NO":999,"REV_AT_EPOCH":18102,"BSTAR":0.00082123,"MEAN_MOTION_DOT":0.00038831,"MEAN_MOTION_DDOT":0},{"OBJECT_NAME":"CONNECTA T1.2","OBJECT_ID":"2023-001D","EPOCH":"2026-04-05T17:19:58.093824","MEAN_MOTION":15.46647174,"ECCENTRICITY":0.0005964,"INCLINATION":97.3327,"RA_OF_ASC_NODE":165.3649,"ARG_OF_PERICENTER":12.152,"MEAN_ANOMALY":347.9873,"EPHEMERIS_TYPE":0,"CLASSIFICATION_TYPE":"U","NORAD_CAT_ID":55012,"ELEMENT_SET_NO":999,"REV_AT_EPOCH":18133,"BSTAR":0.00094876,"MEAN_MOTION_DOT":0.00047477,"MEAN_MOTION_DDOT":0},{"OBJECT_NAME":"BIRKELAND","OBJECT_ID":"2023-001G","EPOCH":"2026-04-05T20:45:08.820288","MEAN_MOTION":15.38793221,"ECCENTRICITY":0.0006854,"INCLINATION":97.3393,"RA_OF_ASC_NODE":163.7012,"ARG_OF_PERICENTER":21.037,"MEAN_ANOMALY":339.1156,"EPHEMERIS_TYPE":0,"CLASSIFICATION_TYPE":"U","NORAD_CAT_ID":55015,"ELEMENT_SET_NO":999,"REV_AT_EPOCH":18122,"BSTAR":0.00030776,"MEAN_MOTION_DOT":0.00011734,"MEAN_MOTION_DDOT":0},{"OBJECT_NAME":"ION SCV-008","OBJECT_ID":"2023-001AU","EPOCH":"2026-04-05T19:33:16.843392","MEAN_MOTION":15.27684909,"ECCENTRICITY":0.0013733,"INCLINATION":97.567,"RA_OF_ASC_NODE":190.9905,"ARG_OF_PERICENTER":267.1237,"MEAN_ANOMALY":92.843,"EPHEMERIS_TYPE":0,"CLASSIFICATION_TYPE":"U","NORAD_CAT_ID":55051,"ELEMENT_SET_NO":999,"REV_AT_EPOCH":18028,"BSTAR":0.00036477,"MEAN_MOTION_DOT":9.821e-5,"MEAN_MOTION_DDOT":0},{"OBJECT_NAME":"ION SCV-007","OBJECT_ID":"2023-001BD","EPOCH":"2026-04-05T17:38:44.580480","MEAN_MOTION":14.77487394,"ECCENTRICITY":0.0011771,"INCLINATION":97.9068,"RA_OF_ASC_NODE":160.169,"ARG_OF_PERICENTER":204.1064,"MEAN_ANOMALY":155.9597,"EPHEMERIS_TYPE":0,"CLASSIFICATION_TYPE":"U","NORAD_CAT_ID":55060,"ELEMENT_SET_NO":999,"REV_AT_EPOCH":17555,"BSTAR":0.0001114,"MEAN_MOTION_DOT":7.44e-6,"MEAN_MOTION_DDOT":0},{"OBJECT_NAME":"HUYGENS","OBJECT_ID":"2023-001CN","EPOCH":"2026-04-05T20:45:13.294944","MEAN_MOTION":15.38806427,"ECCENTRICITY":0.0009026,"INCLINATION":97.3301,"RA_OF_ASC_NODE":163.0231,"ARG_OF_PERICENTER":354.686,"MEAN_ANOMALY":5.4288,"EPHEMERIS_TYPE":0,"CLASSIFICATION_TYPE":"U","NORAD_CAT_ID":55093,"ELEMENT_SET_NO":999,"REV_AT_EPOCH":18124,"BSTAR":0.00040548,"MEAN_MOTION_DOT":0.0001551,"MEAN_MOTION_DDOT":0},{"OBJECT_NAME":"SHARJAHSAT-1","OBJECT_ID":"2023-001CZ","EPOCH":"2026-04-05T19:56:41.011008","MEAN_MOTION":15.46547285,"ECCENTRICITY":0.0005854,"INCLINATION":97.3228,"RA_OF_ASC_NODE":163.7173,"ARG_OF_PERICENTER":21.3361,"MEAN_ANOMALY":338.8131,"EPHEMERIS_TYPE":0,"CLASSIFICATION_TYPE":"U","NORAD_CAT_ID":55104,"ELEMENT_SET_NO":999,"REV_AT_EPOCH":18130,"BSTAR":0.00049732,"MEAN_MOTION_DOT":0.00024687,"MEAN_MOTION_DDOT":0},{"OBJECT_NAME":"HORUS 1","OBJECT_ID":"2023-025A","EPOCH":"2026-04-05T20:03:10.435680","MEAN_MOTION":15.2354211,"ECCENTRICITY":0.0002575,"INCLINATION":97.349,"RA_OF_ASC_NODE":171.9355,"ARG_OF_PERICENTER":112.9046,"MEAN_ANOMALY":247.2463,"EPHEMERIS_TYPE":0,"CLASSIFICATION_TYPE":"U","NORAD_CAT_ID":55690,"ELEMENT_SET_NO":999,"REV_AT_EPOCH":17303,"BSTAR":0.00036923,"MEAN_MOTION_DOT":8.757e-5,"MEAN_MOTION_DDOT":0}]
