MATS                    
1 54227U 22147A   26095.85015163  .00004110  00000+0  29412-3 0  9993
2 54227  97.6842  97.7852 0014698  86.4958 273.7949 15.04903334186888
JILIN-1 GAOFEN 03D54    
1 54254U 22155D   26095.86353000  .00142204  00000+0  97737-3 0  9990
2 54254  97.6050 241.0452 0004171 237.9179 122.1680 15.74235968188858
EOS-6 (OCEANSAT-3)      
1 54361U 22158A   26095.83281669  .00000536  00000+0  15941-3 0  9998
2 54361  98.3484 195.0061 0001705 134.8018 225.3313 14.46983870177371
DONGPO 09               
1 54685U 22167D   26095.88010587  .00017163  00000+0  51095-3 0  9995
2 54685  97.6843 263.7726 0002911  45.9564 314.1917 15.34777505184357
DONGPO 08               
1 54686U 22167E   26095.86892588  .00014618  00000+0  47064-3 0  9996
2 54686  97.6801 261.2726 0009424  68.6990 291.5256 15.32280562184248
2022-167F               
1 54687U 22167F   26095.82322672  .00123782  00000+0  87486-3 0  9990
2 54687  97.6206 276.0062 0002582 276.9105  83.1864 15.73642284185390
DONGPO 10               
1 54689U 22167H   26095.84695214  .00014538  00000+0  45775-3 0  9992
2 54689  97.6885 263.0321 0005185  25.8848 334.2652 15.33026903184277
JILIN-1 GAOFEN 03D48    
1 54695U 22167P   26095.87917677  .00015640  00000+0  48134-3 0  9999
2 54695  97.6818 262.4245 0006626  26.2391 333.9185 15.33729525184308
STAR VIBE               
1 55009U 23001A   26095.86163249  .00018707  00000+0  45916-3 0  9996
2 55009  97.3230 160.1168 0006213  31.3032 328.8583 15.40717190181082
BRO-8                   
1 55011U 23001C   26095.85691277  .00038831  00000+0  82123-3 0  9996
2 55011  97.3279 160.2060 0006153  38.5524 321.6164 15.45028343181028
CONNECTA T1.2           
1 55012U 23001D   26095.72220016  .00047477  00000+0  94876-3 0  9996
2 55012  97.3327 165.3649 0005964  12.1520 347.9873 15.46647174181337
BIRKELAND               
1 55015U 23001G   26095.86468542  .00011734  00000+0  30776-3 0  9998
2 55015  97.3393 163.7012 0006854  21.0370 339.1156 15.38793221181221
ION SCV-008             
1 55051U 23001AU  26095.81477828  .00009821  00000+0  36477-3 0  9998
2 55051  97.5670 190.9905 0013733 267.1237  92.8430 15.27684909180286
ION SCV-007             
1 55060U 23001BD  26095.73523820  .00000744  00000+0  11140-3 0  9998
2 55060  97.9068 160.1690 0011771 204.1064 155.9597 14.77487394175552
HUYGENS                 
1 55093U 23001CN  26095.86473721  .00015510  00000+0  40548-3 0  9993
2 55093  97.3301 163.0231 0009026 354.6860   5.4288 15.38806427181249
SHARJAHSAT-1            
1 55104U 23001CZ  26095.83103022  .00024687  00000+0  49732-3 0  9996
2 55104  97.3228 163.7173 0005854  21.3361 338.8131 15.46547285181301
HORUS 1                 
1 55690U 23025A   26095.83553745  .00008757  00000+0  36923-3 0  9991
2 55690  97.3490 171.9355 0002575 112.9046 247.2463 15.23542110173038
